{
  "type": "FeatureCollection",
  "features": [
    {
      "type": "Feature",
      "properties": {
        "norad_id": 41026,
        "name": "YAOGAN-28",
        "group": "resource",
        "lat": -65.91608789359624,
        "lon": 148.88896616238696,
        "alt_km": 508.1083635759851,
        "timestamp": "2025-12-20T16:47:35.948684+00:00",
        "meta_object_name": "YAOGAN-28",
        "meta_object_id": "2015-064A",
        "meta_epoch": "2025-12-20T12:21:40.426272",
        "meta_mean_motion": 15.24470083,
        "meta_eccentricity": 0.0012624,
        "meta_inclination": 97.281,
        "meta_ra_of_asc_node": 132.0885,
        "meta_arg_of_pericenter": 101.2918,
        "meta_mean_anomaly": 258.9739,
        "meta_ephemeris_type": 0,
        "meta_classification_type": "U",
        "meta_norad_cat_id": 41026,
        "meta_element_set_no": 999,
        "meta_rev_at_epoch": 56343,
        "meta_bstar": 0.00022412,
        "meta_mean_motion_dot": 5.447e-05,
        "meta_mean_motion_ddot": 0,
        "tle_line1": "1 41026U 15064A   25354.51505123  .00005447  00000+0  22412-3 0  9993",
        "tle_line2": "2 41026  97.2810 132.0885 0012624 101.2918 258.9739 15.24470083563434"
      },
      "geometry": {
        "type": "Point",
        "coordinates": [
          148.88896616238696,
          -65.91608789359624
        ]
      }
    },
    {
      "type": "Feature",
      "properties": {
        "norad_id": 41038,
        "name": "YAOGAN-29",
        "group": "resource",
        "lat": -75.90653254127123,
        "lon": 52.06818272579746,
        "alt_km": 627.649311889787,
        "timestamp": "2025-12-20T16:47:35.948694+00:00",
        "meta_object_name": "YAOGAN-29",
        "meta_object_id": "2015-069A",
        "meta_epoch": "2025-12-20T12:17:16.867392",
        "meta_mean_motion": 14.82893594,
        "meta_eccentricity": 4.81e-05,
        "meta_inclination": 98.0211,
        "meta_ra_of_asc_node": 17.7091,
        "meta_arg_of_pericenter": 171.5241,
        "meta_mean_anomaly": 188.5981,
        "meta_ephemeris_type": 0,
        "meta_classification_type": "U",
        "meta_norad_cat_id": 41038,
        "meta_element_set_no": 999,
        "meta_rev_at_epoch": 54414,
        "meta_bstar": 0.00013857,
        "meta_mean_motion_dot": 1.069e-05,
        "meta_mean_motion_ddot": 0,
        "tle_line1": "1 41038U 15069A   25354.51200078  .00001069  00000+0  13857-3 0  9991",
        "tle_line2": "2 41038  98.0211  17.7091 0000481 171.5241 188.5981 14.82893594544149"
      },
      "geometry": {
        "type": "Point",
        "coordinates": [
          52.06818272579746,
          -75.90653254127123
        ]
      }
    },
    {
      "type": "Feature",
      "properties": {
        "norad_id": 41167,
        "name": "KENT RIDGE 1",
        "group": "resource",
        "lat": -6.609683724628481,
        "lon": 126.39374465129534,
        "alt_km": 498.8013012003921,
        "timestamp": "2025-12-20T16:47:35.948704+00:00",
        "meta_object_name": "KENT RIDGE 1",
        "meta_object_id": "2015-077B",
        "meta_epoch": "2025-12-20T02:45:02.433600",
        "meta_mean_motion": 15.21689369,
        "meta_eccentricity": 0.00085141,
        "meta_inclination": 14.9782,
        "meta_ra_of_asc_node": 156.4146,
        "meta_arg_of_pericenter": 235.187,
        "meta_mean_anomaly": 124.765,
        "meta_ephemeris_type": 0,
        "meta_classification_type": "U",
        "meta_norad_cat_id": 41167,
        "meta_element_set_no": 999,
        "meta_rev_at_epoch": 55376,
        "meta_bstar": 0.0001172665,
        "meta_mean_motion_dot": 3.486e-05,
        "meta_mean_motion_ddot": 0,
        "tle_line1": "1 41167U 15077B   25354.11461150  .00003486  00000+0  11727-3 0  9998",
        "tle_line2": "2 41167  14.9782 156.4146 0008514 235.1870 124.7650 15.21689369553764"
      },
      "geometry": {
        "type": "Point",
        "coordinates": [
          126.39374465129534,
          -6.609683724628481
        ]
      }
    },
    {
      "type": "Feature",
      "properties": {
        "norad_id": 41194,
        "name": "GAOFEN-4",
        "group": "resource",
        "lat": 0.044486880641773995,
        "lon": 87.10492236195752,
        "alt_km": 35785.433466110924,
        "timestamp": "2025-12-20T16:47:35.948716+00:00",
        "meta_object_name": "GAOFEN-4",
        "meta_object_id": "2015-083A",
        "meta_epoch": "2025-12-19T15:27:26.627616",
        "meta_mean_motion": 1.00273138,
        "meta_eccentricity": 0.0002945,
        "meta_inclination": 0.1878,
        "meta_ra_of_asc_node": 81.7841,
        "meta_arg_of_pericenter": 93.4275,
        "meta_mean_anomaly": 250.8523,
        "meta_ephemeris_type": 0,
        "meta_classification_type": "U",
        "meta_norad_cat_id": 41194,
        "meta_element_set_no": 999,
        "meta_rev_at_epoch": 3672,
        "meta_bstar": 0,
        "meta_mean_motion_dot": -3.11e-06,
        "meta_mean_motion_ddot": 0,
        "tle_line1": "1 41194U 15083A   25353.64405819 -.00000311  00000+0  00000+0 0  9995",
        "tle_line2": "2 41194   0.1878  81.7841 0002945  93.4275 250.8523  1.00273138 36722"
      },
      "geometry": {
        "type": "Point",
        "coordinates": [
          87.10492236195752,
          0.044486880641773995
        ]
      }
    },
    {
      "type": "Feature",
      "properties": {
        "norad_id": 41240,
        "name": "JASON-3",
        "group": "resource",
        "lat": 47.67453440857246,
        "lon": -68.13444927842835,
        "alt_km": 1310.3391747079322,
        "timestamp": "2025-12-20T16:47:35.948727+00:00",
        "meta_object_name": "JASON-3",
        "meta_object_id": "2016-002A",
        "meta_epoch": "2025-12-20T10:32:55.874112",
        "meta_mean_motion": 12.8762687,
        "meta_eccentricity": 0.0007221,
        "meta_inclination": 66.0399,
        "meta_ra_of_asc_node": 141.6361,
        "meta_arg_of_pericenter": 271.2624,
        "meta_mean_anomaly": 88.7568,
        "meta_ephemeris_type": 0,
        "meta_classification_type": "U",
        "meta_norad_cat_id": 41240,
        "meta_element_set_no": 999,
        "meta_rev_at_epoch": 46423,
        "meta_bstar": -4.0648e-05,
        "meta_mean_motion_dot": -7.3e-07,
        "meta_mean_motion_ddot": 0,
        "tle_line1": "1 41240U 16002A   25354.43953558 -.00000073  00000+0 -40648-4 0  9998",
        "tle_line2": "2 41240  66.0399 141.6361 0007221 271.2624  88.7568 12.87626870464232"
      },
      "geometry": {
        "type": "Point",
        "coordinates": [
          -68.13444927842835,
          47.67453440857246
        ]
      }
    },
    {
      "type": "Feature",
      "properties": {
        "norad_id": 41335,
        "name": "SENTINEL-3A",
        "group": "resource",
        "lat": 5.514209733388096,
        "lon": -119.55881244240477,
        "alt_km": 804.7470589857048,
        "timestamp": "2025-12-20T16:47:35.948738+00:00",
        "meta_object_name": "SENTINEL-3A",
        "meta_object_id": "2016-011A",
        "meta_epoch": "2025-12-20T10:55:46.796736",
        "meta_mean_motion": 14.26733454,
        "meta_eccentricity": 9.07e-05,
        "meta_inclination": 98.6304,
        "meta_ra_of_asc_node": 59.3602,
        "meta_arg_of_pericenter": 94.0334,
        "meta_mean_anomaly": 266.095,
        "meta_ephemeris_type": 0,
        "meta_classification_type": "U",
        "meta_norad_cat_id": 41335,
        "meta_element_set_no": 999,
        "meta_rev_at_epoch": 51257,
        "meta_bstar": 6.0239e-05,
        "meta_mean_motion_dot": 1.02e-06,
        "meta_mean_motion_ddot": 0,
        "tle_line1": "1 41335U 16011A   25354.45540274  .00000102  00000+0  60239-4 0  9991",
        "tle_line2": "2 41335  98.6304  59.3602 0000907  94.0334 266.0950 14.26733454512579"
      },
      "geometry": {
        "type": "Point",
        "coordinates": [
          -119.55881244240477,
          5.514209733388096
        ]
      }
    },
    {
      "type": "Feature",
      "properties": {
        "norad_id": 41556,
        "name": "ZIYUAN 3-02 (ZY 3-02)",
        "group": "resource",
        "lat": 67.51645921451758,
        "lon": -92.95336115557893,
        "alt_km": 497.7701180517315,
        "timestamp": "2025-12-20T16:47:35.948748+00:00",
        "meta_object_name": "ZIYUAN 3-02 (ZY 3-02)",
        "meta_object_id": "2016-033A",
        "meta_epoch": "2025-12-20T13:08:51.413856",
        "meta_mean_motion": 15.21158057,
        "meta_eccentricity": 0.0011058,
        "meta_inclination": 97.4039,
        "meta_ra_of_asc_node": 68.5852,
        "meta_arg_of_pericenter": 216.8995,
        "meta_mean_anomaly": 143.148,
        "meta_ephemeris_type": 0,
        "meta_classification_type": "U",
        "meta_norad_cat_id": 41556,
        "meta_element_set_no": 999,
        "meta_rev_at_epoch": 53082,
        "meta_bstar": 0.00022851,
        "meta_mean_motion_dot": 5.029e-05,
        "meta_mean_motion_ddot": 0,
        "tle_line1": "1 41556U 16033A   25354.54781729  .00005029  00000+0  22851-3 0  9992",
        "tle_line2": "2 41556  97.4039  68.5852 0011058 216.8995 143.1480 15.21158057530828"
      },
      "geometry": {
        "type": "Point",
        "coordinates": [
          -92.95336115557893,
          67.51645921451758
        ]
      }
    }
  ]
}